LEMUR-2-AHMED-ASRAR     
1 60576U 24149DN  26068.73265438  .00013045  00000+0  79773-3 0  9992
2 60576  97.7021 152.9847 0001633  18.5035 341.6253 15.10376432 85541
LEMUR-2-LANGER2SPACE    
1 63358U 25061H   26068.93705617  .00006238  00000+0  35148-3 0  9991
2 63358  97.5541  45.3892 0015335 237.4180 122.5571 15.13463796 52602
